SL-4 R/B                
1 39679U 14021B   26036.67310653  .00019171  00000+0  43274-3 0  9991
2 39679  51.6065 133.3414 0099048 346.3080  13.5221 15.38168742651340
ALOS-2                  
1 39766U 14029A   26037.26959953  .00000048  00000+0  13314-4 0  9990
2 39766  97.9220 136.3190 0001445  98.3800 261.7576 14.79488296632224
YAOGAN-29               
1 41038U 15069A   26037.28459135  .00000616  00000+0  82531-4 0  9997
2 41038  98.0171  65.6250 0002855  88.1648 271.9892 14.82958198551221
ASTRO-H (HITOMI)        
1 41337U 16012A   26036.77007527  .00005259  00000+0  31185-3 0  9991
2 41337  30.9980 202.4944 0009867  11.6980 348.3886 15.09771099547407
HXMT (HUIYAN)           
1 42758U 17034A   26036.91491457  .00010152  00000+0  50890-3 0  9991
2 42758  43.0133 193.2692 0031157  31.5486 328.7222 15.17043004477715
CZ-2C R/B               
1 43521U 18054D   26036.69356123  .00383685  57499-4  97534-3 0  9997
2 43521  35.1296 163.7715 0013223 352.0460   8.0068 15.94208740423768
SAOCOM 1A               
1 43641U 18076A   26037.30056204  .00000708  00000+0  95545-4 0  9994
2 43641  97.8865 225.9183 0001443  83.8408 276.2970 14.82156220396716
H-2A R/B                
1 43682U 18084L   26037.03758873  .00027207  00000+0  67576-3 0  9994
2 43682  98.8757 247.6942 0026339 131.9263 228.4230 15.39956754400909
SAOCOM 1B               
1 46265U 20059A   26037.26430251  .00000495  00000+0  68757-4 0  9994
2 46265  97.8860 224.9809 0001326  84.6883 275.4482 14.82160490294097
CSS (TIANHE)            
1 48274U 21035A   26037.28129305  .00026464  00000+0  32987-3 0  9997
2 48274  41.4679  39.0675 0005398  12.1977 347.8991 15.59282230272706
COSMOS 2550             
1 48865U 21056A   26037.47852348  .00005912  00000+0  18532-3 0  9992
2 48865  67.1442 135.3399 0008314 269.2950  90.7252 15.33839820258674
CZ-2C R/B               
1 52794U 22058K   26037.24316426  .00036021  00000+0  56970-3 0  9991
2 52794  50.1886 119.7754 0042304  67.3882 293.1555 15.52033361205240
