CCSDS_OMM_VERS = 2.0
CREATION_DATE  = 
ORIGINATOR     = 

OBJECT_NAME    = SL-4 R/B
OBJECT_ID      = 2014-021B
CENTER_NAME    = EARTH
REF_FRAME      = TEME
TIME_SYSTEM    = UTC
MEAN_ELEMENT_THEORY = SGP/SGP4

EPOCH          = 2026-02-05T16:09:16.404192
MEAN_MOTION    = 15.38168742
ECCENTRICITY   = .0099048
INCLINATION    = 51.6065
RA_OF_ASC_NODE = 133.3414
ARG_OF_PERICENTER = 346.3080
MEAN_ANOMALY   = 13.5221

EPHEMERIS_TYPE = 0
CLASSIFICATION_TYPE = U
NORAD_CAT_ID   = 39679
ELEMENT_SET_NO = 999
REV_AT_EPOCH   = 65134
BSTAR          = .43274E-3
MEAN_MOTION_DOT = .19171E-3
MEAN_MOTION_DDOT = 0

CCSDS_OMM_VERS = 2.0
CREATION_DATE  = 
ORIGINATOR     = 

OBJECT_NAME    = ALOS-2
OBJECT_ID      = 2014-029A
CENTER_NAME    = EARTH
REF_FRAME      = TEME
TIME_SYSTEM    = UTC
MEAN_ELEMENT_THEORY = SGP/SGP4

EPOCH          = 2026-02-06T06:28:13.399392
MEAN_MOTION    = 14.79488296
ECCENTRICITY   = .00014453
INCLINATION    = 97.9220
RA_OF_ASC_NODE = 136.3190
ARG_OF_PERICENTER = 98.3800
MEAN_ANOMALY   = 261.7576

EPHEMERIS_TYPE = 0
CLASSIFICATION_TYPE = U
NORAD_CAT_ID   = 39766
ELEMENT_SET_NO = 999
REV_AT_EPOCH   = 63222
BSTAR          = .13313955E-4
MEAN_MOTION_DOT = .48E-6
MEAN_MOTION_DDOT = 0

CCSDS_OMM_VERS = 2.0
CREATION_DATE  = 
ORIGINATOR     = 

OBJECT_NAME    = YAOGAN-29
OBJECT_ID      = 2015-069A
CENTER_NAME    = EARTH
REF_FRAME      = TEME
TIME_SYSTEM    = UTC
MEAN_ELEMENT_THEORY = SGP/SGP4

EPOCH          = 2026-02-06T06:49:48.692640
MEAN_MOTION    = 14.82958198
ECCENTRICITY   = .00028557
INCLINATION    = 98.0171
RA_OF_ASC_NODE = 65.6250
ARG_OF_PERICENTER = 88.1648
MEAN_ANOMALY   = 271.9892

EPHEMERIS_TYPE = 0
CLASSIFICATION_TYPE = U
NORAD_CAT_ID   = 41038
ELEMENT_SET_NO = 999
REV_AT_EPOCH   = 55122
BSTAR          = .82531494E-4
MEAN_MOTION_DOT = .616E-5
MEAN_MOTION_DDOT = 0

CCSDS_OMM_VERS = 2.0
CREATION_DATE  = 
ORIGINATOR     = 

OBJECT_NAME    = ASTRO-H (HITOMI)
OBJECT_ID      = 2016-012A
CENTER_NAME    = EARTH
REF_FRAME      = TEME
TIME_SYSTEM    = UTC
MEAN_ELEMENT_THEORY = SGP/SGP4

EPOCH          = 2026-02-05T18:28:54.503328
MEAN_MOTION    = 15.09771099
ECCENTRICITY   = .00098671
INCLINATION    = 30.9980
RA_OF_ASC_NODE = 202.4944
ARG_OF_PERICENTER = 11.6980
MEAN_ANOMALY   = 348.3886

EPHEMERIS_TYPE = 0
CLASSIFICATION_TYPE = U
NORAD_CAT_ID   = 41337
ELEMENT_SET_NO = 999
REV_AT_EPOCH   = 54740
BSTAR          = .31185493E-3
MEAN_MOTION_DOT = .5259E-4
MEAN_MOTION_DDOT = 0

CCSDS_OMM_VERS = 2.0
CREATION_DATE  = 
ORIGINATOR     = 

OBJECT_NAME    = HXMT (HUIYAN)
OBJECT_ID      = 2017-034A
CENTER_NAME    = EARTH
REF_FRAME      = TEME
TIME_SYSTEM    = UTC
MEAN_ELEMENT_THEORY = SGP/SGP4

EPOCH          = 2026-02-05T21:57:28.618848
MEAN_MOTION    = 15.17043004
ECCENTRICITY   = .0031157
INCLINATION    = 43.0133
RA_OF_ASC_NODE = 193.2692
ARG_OF_PERICENTER = 31.5486
MEAN_ANOMALY   = 328.7222

EPHEMERIS_TYPE = 0
CLASSIFICATION_TYPE = U
NORAD_CAT_ID   = 42758
ELEMENT_SET_NO = 999
REV_AT_EPOCH   = 47771
BSTAR          = .5089E-3
MEAN_MOTION_DOT = .10152E-3
MEAN_MOTION_DDOT = 0

CCSDS_OMM_VERS = 2.0
CREATION_DATE  = 
ORIGINATOR     = 

OBJECT_NAME    = CZ-2C R/B
OBJECT_ID      = 2018-054D
CENTER_NAME    = EARTH
REF_FRAME      = TEME
TIME_SYSTEM    = UTC
MEAN_ELEMENT_THEORY = SGP/SGP4

EPOCH          = 2026-02-05T16:38:43.690272
MEAN_MOTION    = 15.94208740
ECCENTRICITY   = .0013223
INCLINATION    = 35.1296
RA_OF_ASC_NODE = 163.7715
ARG_OF_PERICENTER = 352.0460
MEAN_ANOMALY   = 8.0068

EPHEMERIS_TYPE = 0
CLASSIFICATION_TYPE = U
NORAD_CAT_ID   = 43521
ELEMENT_SET_NO = 999
REV_AT_EPOCH   = 42376
BSTAR          = .97534E-3
MEAN_MOTION_DOT = .383685E-2
MEAN_MOTION_DDOT = .57499E-4

CCSDS_OMM_VERS = 2.0
CREATION_DATE  = 
ORIGINATOR     = 

OBJECT_NAME    = SAOCOM 1A
OBJECT_ID      = 2018-076A
CENTER_NAME    = EARTH
REF_FRAME      = TEME
TIME_SYSTEM    = UTC
MEAN_ELEMENT_THEORY = SGP/SGP4

EPOCH          = 2026-02-06T07:12:48.560256
MEAN_MOTION    = 14.82156220
ECCENTRICITY   = .00014431
INCLINATION    = 97.8865
RA_OF_ASC_NODE = 225.9183
ARG_OF_PERICENTER = 83.8408
MEAN_ANOMALY   = 276.2970

EPHEMERIS_TYPE = 0
CLASSIFICATION_TYPE = U
NORAD_CAT_ID   = 43641
ELEMENT_SET_NO = 999
REV_AT_EPOCH   = 39671
BSTAR          = .95544626E-4
MEAN_MOTION_DOT = .708E-5
MEAN_MOTION_DDOT = 0

CCSDS_OMM_VERS = 2.0
CREATION_DATE  = 
ORIGINATOR     = 

OBJECT_NAME    = H-2A R/B
OBJECT_ID      = 2018-084L
CENTER_NAME    = EARTH
REF_FRAME      = TEME
TIME_SYSTEM    = UTC
MEAN_ELEMENT_THEORY = SGP/SGP4

EPOCH          = 2026-02-06T00:54:07.666272
MEAN_MOTION    = 15.39956754
ECCENTRICITY   = .00263395
INCLINATION    = 98.8757
RA_OF_ASC_NODE = 247.6942
ARG_OF_PERICENTER = 131.9263
MEAN_ANOMALY   = 228.4230

EPHEMERIS_TYPE = 0
CLASSIFICATION_TYPE = U
NORAD_CAT_ID   = 43682
ELEMENT_SET_NO = 999
REV_AT_EPOCH   = 40090
BSTAR          = .67576044E-3
MEAN_MOTION_DOT = .27207E-3
MEAN_MOTION_DDOT = 0

CCSDS_OMM_VERS = 2.0
CREATION_DATE  = 
ORIGINATOR     = 

OBJECT_NAME    = SAOCOM 1B
OBJECT_ID      = 2020-059A
CENTER_NAME    = EARTH
REF_FRAME      = TEME
TIME_SYSTEM    = UTC
MEAN_ELEMENT_THEORY = SGP/SGP4

EPOCH          = 2026-02-06T06:20:35.736864
MEAN_MOTION    = 14.82160490
ECCENTRICITY   = .00013264
INCLINATION    = 97.8860
RA_OF_ASC_NODE = 224.9809
ARG_OF_PERICENTER = 84.6883
MEAN_ANOMALY   = 275.4482

EPHEMERIS_TYPE = 0
CLASSIFICATION_TYPE = U
NORAD_CAT_ID   = 46265
ELEMENT_SET_NO = 999
REV_AT_EPOCH   = 29409
BSTAR          = .68756823E-4
MEAN_MOTION_DOT = .495E-5
MEAN_MOTION_DDOT = 0

CCSDS_OMM_VERS = 2.0
CREATION_DATE  = 
ORIGINATOR     = 

OBJECT_NAME    = CSS (TIANHE)
OBJECT_ID      = 2021-035A
CENTER_NAME    = EARTH
REF_FRAME      = TEME
TIME_SYSTEM    = UTC
MEAN_ELEMENT_THEORY = SGP/SGP4

EPOCH          = 2026-02-06T06:45:03.719520
MEAN_MOTION    = 15.59282230
ECCENTRICITY   = .0005398
INCLINATION    = 41.4679
RA_OF_ASC_NODE = 39.0675
ARG_OF_PERICENTER = 12.1977
MEAN_ANOMALY   = 347.8991

EPHEMERIS_TYPE = 0
CLASSIFICATION_TYPE = U
NORAD_CAT_ID   = 48274
ELEMENT_SET_NO = 999
REV_AT_EPOCH   = 27270
BSTAR          = .32987475E-3
MEAN_MOTION_DOT = .26464E-3
MEAN_MOTION_DDOT = 0

CCSDS_OMM_VERS = 2.0
CREATION_DATE  = 
ORIGINATOR     = 

OBJECT_NAME    = COSMOS 2550
OBJECT_ID      = 2021-056A
CENTER_NAME    = EARTH
REF_FRAME      = TEME
TIME_SYSTEM    = UTC
MEAN_ELEMENT_THEORY = SGP/SGP4

EPOCH          = 2026-02-06T11:29:04.428672
MEAN_MOTION    = 15.33839820
ECCENTRICITY   = .0008314
INCLINATION    = 67.1442
RA_OF_ASC_NODE = 135.3399
ARG_OF_PERICENTER = 269.2950
MEAN_ANOMALY   = 90.7252

EPHEMERIS_TYPE = 0
CLASSIFICATION_TYPE = U
NORAD_CAT_ID   = 48865
ELEMENT_SET_NO = 999
REV_AT_EPOCH   = 25867
BSTAR          = .18532E-3
MEAN_MOTION_DOT = .5912E-4
MEAN_MOTION_DDOT = 0

CCSDS_OMM_VERS = 2.0
CREATION_DATE  = 
ORIGINATOR     = 

OBJECT_NAME    = CZ-2C R/B
OBJECT_ID      = 2022-058K
CENTER_NAME    = EARTH
REF_FRAME      = TEME
TIME_SYSTEM    = UTC
MEAN_ELEMENT_THEORY = SGP/SGP4

EPOCH          = 2026-02-06T05:50:09.392064
MEAN_MOTION    = 15.52033361
ECCENTRICITY   = .00423047
INCLINATION    = 50.1886
RA_OF_ASC_NODE = 119.7754
ARG_OF_PERICENTER = 67.3882
MEAN_ANOMALY   = 293.1555

EPHEMERIS_TYPE = 0
CLASSIFICATION_TYPE = U
NORAD_CAT_ID   = 52794
ELEMENT_SET_NO = 999
REV_AT_EPOCH   = 20524
BSTAR          = .56970211E-3
MEAN_MOTION_DOT = .36021E-3
MEAN_MOTION_DDOT = 0

